#aV2018 12 11  0  0  0.00000000     288 DD+AD WGS84 FIT  NGA
## 2031 172800.00000000   300.00000000 58463 0.0000000000000
+   31     1  2  3  5  6  7  8  9 10 11 12 13 14 15 16 17 18
+         19 20 21 22 23 24 25 26 27 28 29 30 31 32  0  0  0
+          0  0  0  0  0  0  0  0  0  0  0  0  0  0  0  0  0
+          0  0  0  0  0  0  0  0  0  0  0  0  0  0  0  0  0
+          0  0  0  0  0  0  0  0  0  0  0  0  0  0  0  0  0
++         2  2  2  2  2  2  2  2  2  2  2  2  2  2  2  2  2
++         2  2  2  2  2  2  2  2  2  2  2  2  2  2  0  0  0
++         0  0  0  0  0  0  0  0  0  0  0  0  0  0  0  0  0
++         0  0  0  0  0  0  0  0  0  0  0  0  0  0  0  0  0
++         0  0  0  0  0  0  0  0  0  0  0  0  0  0  0  0  0
%c cc cc ccc ccc cccc cccc cccc cccc ccccc ccccc ccccc ccccc
%c cc cc ccc ccc cccc cccc cccc cccc ccccc ccccc ccccc ccccc
%f  0.0000000  0.000000000  0.00000000000  0.000000000000000
%f  0.0000000  0.000000000  0.00000000000  0.000000000000000
%i    0    0    0    0      0      0      0      0         0
%i    0    0    0    0      0      0      0      0         0
/*      NGA, ST. LOUIS,MO.                                  
/*   EPHEMERIS COMPUTED FROM 2 DAYS OF DATA                 
/*   EPOCHA v3 SMOOTHER                                     
/*   G1762 IERS2010 SATAF SATAPC                            
*  2018 12 11  1 20  0.00000000
P  1    597.644447 -15789.591242 -21468.512160   -127.045160                    
V  1  25422.068991  -8758.866827   7501.187945     -0.057978                    
P  2 -20108.800416  15406.857513   8195.053438    -82.362159                    
V  2 -10022.807698   1321.493073 -29386.460777     -0.103484                    
P  3  -9150.529575 -20438.521856 -14373.158476    168.480448                    
V  3  15346.952108   9914.122496 -23865.707246      0.033012                    
P  5 -10495.927251  11353.102781  21480.584896      0.319398                    
V  5 -21743.646228 -17000.640112  -1431.280963      0.002011                    
P  6 -25378.268270   6085.302478  -4960.590205    318.573716                    
V  6   5080.695160  -4444.517198 -31196.306552     -0.068632                    
P  7 -15351.262504  -9380.101938  19924.550825     72.811025                    
V  7  22872.017523  -9238.649589  12982.345769     -0.069677                    
P  8   6118.999186 -25540.883010   3317.115359   -125.159434                    
V  8   2001.690533   4513.151491  31698.494267     -0.012772                    
P  9  -8964.319523 -18858.459325  16365.199928    484.399845                    
V  9   5099.452432 -20364.236119 -20620.795810     -0.037726                    
P 10  22729.250727   8879.746017 -10669.317981    153.271575                    
V 10   9061.001414  10331.034642  27604.902055     -0.052795                    
P 11   3396.745083 -21393.376156 -16051.965536   -690.097156                    
V 11  15520.168344 -12103.229588  19874.649526      0.045737                    
P 12   5000.787151  20065.949320 -16965.795053    285.472191                    
V 12 -16187.375292 -13497.802905 -20801.805742     -0.029618                    
P 13 -12659.945585  21499.944863   8945.346192    -81.957745                    
V 13    891.748890 -11741.547285  29128.889398      0.011653                    
P 14  15889.662741  -8128.717406 -19310.473109    -94.793928                    
V 14  -4600.779697  24847.529508 -14201.020775      0.005065                    
P 15  -1845.008103  26277.179680    -78.369199   -336.717191                    
V 15  -4188.753540   -494.871390  31257.763154      0.014156                    
P 16  11593.658458  -9063.500729  21968.370675     -5.934864                    
V 16  20272.976161  19594.100284  -2183.443219     -0.021849                    
P 17 -14299.979256  -2595.012910 -21823.468873    -20.264945                    
V 17   5981.004284 -28005.708028   -685.839331      0.050876                    
P 18  10678.256393 -17781.219198 -16984.108246      4.174918                    
V 18  19795.451721  -6491.628636  19948.924218      0.040046                    
P 19 -15964.879027   8156.466843 -19925.896841   -375.124524                    
V 19   5512.884868 -23964.865163 -14330.132477      0.038492                    
P 20  22776.424475  13776.574220   -909.699564    519.793004                    
V 20  -1135.338241   3656.505138  30932.046429      0.004726                    
P 21  17952.956399   7046.520740  19032.509398   -289.510284                    
V 21 -20070.253003  10492.512213  15799.147789      0.066827                    
P 22  -2080.214243 -18639.791157 -18589.410217   -595.611133                    
V 22  20805.413467  12498.441093 -14638.364229     -0.093378                    
P 23  -3044.129794 -24671.875398   9048.869164   -203.881737                    
V 23   4916.130300 -10628.783885 -28687.391847      0.010682                    
P 24  -5420.628441  17597.887034 -19166.900386    -59.361604                    
V 24 -22902.707283   8069.864951  14305.966061     -0.004967                    
P 25  15283.687338  20181.651919  -8622.610213   -689.427387                    
V 25  -9483.427105  -5167.350266 -29304.208385     -0.055403                    
P 26  18905.461404  -1998.637334  18608.463541     64.190568                    
V 26  17701.026542  15686.908133 -16134.100176      0.108610                    
P 27  11728.651946 -20079.425415  12491.697102    -30.473648                    
V 27   -477.087737  16197.960066  26573.333793     -0.057674                    
P 28 -21329.648603 -12583.384361  -8866.065831    758.028877                    
V 28  -7212.131910  -9995.948324  29553.650015      0.013507                    
P 29   5443.136659  21149.465889  15094.698918    318.079509                    
V 29  -5733.985530  18340.109600 -23597.073038     -0.081445                    
P 30 -23409.154291  -1964.037773  12573.059745    -17.890513                    
V 30  14314.388697  -7433.302104  25355.530381     -0.058707                    
P 31  25685.161713  -7381.390360  -2027.122671     73.708033                    
V 31  -1637.430479   3107.258450 -31352.969133     -0.026663                    
P 32  15424.475444   -148.692410 -21578.292430   -323.631101                    
V 32  -3894.938037  27235.896573  -3063.954169      0.154283                    
EOF
